STARLINK-1067           
1 44771U 19074BL  26027.33335648  .00121418  00000+0  23642-2 0  9991
2 44771  53.0551  43.3616 0005248  60.2293 115.3431 15.46664991  5877
STARLINK-1068           
1 44772U 19074BM  26027.26560636  .00158713  00000+0  24274-2 0  9991
2 44772  53.0531  21.2620 0001980  86.3336 273.7900 15.53353361342386
STARLINK-1112           
1 44925U 20001M   26027.33335648  .00211074  00000+0  10320-2 0  9991
2 44925  53.0405  92.7547 0001815 316.1160 292.6717 15.81183103  5998
STARLINK-1114           
1 44927U 20001P   26027.33335648  .00137990  00000+0  30375-2 0  9999
2 44927  53.0527 166.8093 0002596 328.5318  88.3497 15.42992290  5664
STARLINK-1123           
1 44930U 20001S   26026.72578338  .00001440  00000+0  11554-3 0  9999
2 44930  53.0558 175.0025 0000872  71.4547 288.6537 15.06409538333529
STARLINK-1144           
1 44933U 20001V   26027.33335648  .00412712  81322-4  91108-3 0  9997
2 44933  53.0325  63.2542 0007503  21.2652 152.2784 15.97452983  5960
STARLINK-1094           
1 44941U 20001AD  26027.33335648  .00919837  00000+0  33609-1 0  9995
2 44941  53.1364 151.5949 0001454 100.1773 262.6521 15.25082775  5745
STARLINK-1122           
1 44949U 20001AM  26027.33335648  .00896957  00000+0  32823-1 0  9997
2 44949  53.1372 151.5831 0001248 100.1077 148.1833 15.25097374  5790
STARLINK-1080           
1 44961U 20001AZ  26027.33335648  .00081070  00000+0  18775-2 0  9994
2 44961  53.0535 124.8883 0005345 340.0816  80.3365 15.41748014  5858
STARLINK-1090           
1 44968U 20001BG  26026.56360397 -.00000914  00000+0 -42427-4 0  9997
2 44968  53.0504 135.7300 0001983  96.7376 263.3838 15.06401789334068
STARLINK-1132           
1 45044U 20006A   26026.55599155  .00067384  00000+0  18283-2 0  9996
2 45044  53.1596  92.7989 0002103  65.7289 294.3934 15.37012167330435
STARLINK-1131           
1 45047U 20006D   26027.33335648  .01723674  00000+0  81262-1 0  9999
2 45047  53.0950 112.6331 0000742  97.9816 210.4578 15.15881368  5743
STARLINK-1134           
1 45048U 20006E   26027.31799018  .00095154  00000+0  24954-2 0  9993
2 45048  53.0357  74.2800 0004844  56.1086 304.0377 15.37889625330760
STARLINK-1156           
1 45054U 20006L   26027.33335648  .01349026  00000+0  75158-1 0  9999
2 45054  53.0689 112.2512 0001053  67.7583 313.8512 15.10141319  5802
STARLINK-1159           
1 45057U 20006P   26027.33335648  .00067506  00000+0  60434-3 0  9994
2 45057  53.0481  80.8421 0004491 326.4709  69.2480 15.67730606  5898
STARLINK-1166           
1 45060U 20006S   26027.30717320  .00093479  00000+0  23325-2 0  9991
2 45060  53.0533 109.0492 0001442  46.3702 313.7420 15.39432493330272
