[{"OBJECT_NAME":"STARLINK-1067","OBJECT_ID":"2019-074BL","EPOCH":"2026-01-27T08:00:01.999872","MEAN_MOTION":15.46664991,"ECCENTRICITY":0.00052482,"INCLINATION":53.0551,"RA_OF_ASC_NODE":43.3616,"ARG_OF_PERICENTER":60.2293,"MEAN_ANOMALY":115.3431,"EPHEMERIS_TYPE":0,"CLASSIFICATION_TYPE":"U","NORAD_CAT_ID":44771,"ELEMENT_SET_NO":999,"REV_AT_EPOCH":587,"BSTAR":0.0023641917,"MEAN_MOTION_DOT":0.00121418,"MEAN_MOTION_DDOT":0},{"OBJECT_NAME":"STARLINK-1068","OBJECT_ID":"2019-074BM","EPOCH":"2026-01-27T06:22:28.389504","MEAN_MOTION":15.53353361,"ECCENTRICITY":0.00019809,"INCLINATION":53.0531,"RA_OF_ASC_NODE":21.262,"ARG_OF_PERICENTER":86.3336,"MEAN_ANOMALY":273.79,"EPHEMERIS_TYPE":0,"CLASSIFICATION_TYPE":"U","NORAD_CAT_ID":44772,"ELEMENT_SET_NO":999,"REV_AT_EPOCH":34238,"BSTAR":0.002427391,"MEAN_MOTION_DOT":0.00158713,"MEAN_MOTION_DDOT":0},{"OBJECT_NAME":"STARLINK-1112","OBJECT_ID":"2020-001M","EPOCH":"2026-01-27T08:00:01.999872","MEAN_MOTION":15.81183103,"ECCENTRICITY":0.00018155,"INCLINATION":53.0405,"RA_OF_ASC_NODE":92.7547,"ARG_OF_PERICENTER":316.116,"MEAN_ANOMALY":292.6717,"EPHEMERIS_TYPE":0,"CLASSIFICATION_TYPE":"U","NORAD_CAT_ID":44925,"ELEMENT_SET_NO":999,"REV_AT_EPOCH":599,"BSTAR":0.0010320023,"MEAN_MOTION_DOT":0.00211074,"MEAN_MOTION_DDOT":0},{"OBJECT_NAME":"STARLINK-1114","OBJECT_ID":"2020-001P","EPOCH":"2026-01-27T08:00:01.999872","MEAN_MOTION":15.4299229,"ECCENTRICITY":0.00025965,"INCLINATION":53.0527,"RA_OF_ASC_NODE":166.8093,"ARG_OF_PERICENTER":328.5318,"MEAN_ANOMALY":88.3497,"EPHEMERIS_TYPE":0,"CLASSIFICATION_TYPE":"U","NORAD_CAT_ID":44927,"ELEMENT_SET_NO":999,"REV_AT_EPOCH":566,"BSTAR":0.0030374775,"MEAN_MOTION_DOT":0.0013799,"MEAN_MOTION_DDOT":0},{"OBJECT_NAME":"STARLINK-1123","OBJECT_ID":"2020-001S","EPOCH":"2026-01-26T17:25:07.684032","MEAN_MOTION":15.06409538,"ECCENTRICITY":8.727e-5,"INCLINATION":53.0558,"RA_OF_ASC_NODE":175.0025,"ARG_OF_PERICENTER":71.4547,"MEAN_ANOMALY":288.6537,"EPHEMERIS_TYPE":0,"CLASSIFICATION_TYPE":"U","NORAD_CAT_ID":44930,"ELEMENT_SET_NO":999,"REV_AT_EPOCH":33352,"BSTAR":0.00011553617,"MEAN_MOTION_DOT":1.44e-5,"MEAN_MOTION_DDOT":0},{"OBJECT_NAME":"STARLINK-1144","OBJECT_ID":"2020-001V","EPOCH":"2026-01-27T08:00:01.999872","MEAN_MOTION":15.97452983,"ECCENTRICITY":0.00075032,"INCLINATION":53.0325,"RA_OF_ASC_NODE":63.2542,"ARG_OF_PERICENTER":21.2652,"MEAN_ANOMALY":152.2784,"EPHEMERIS_TYPE":0,"CLASSIFICATION_TYPE":"U","NORAD_CAT_ID":44933,"ELEMENT_SET_NO":999,"REV_AT_EPOCH":596,"BSTAR":0.00091108114,"MEAN_MOTION_DOT":0.00412712,"MEAN_MOTION_DDOT":8.1321555e-5},{"OBJECT_NAME":"STARLINK-1094","OBJECT_ID":"2020-001AD","EPOCH":"2026-01-27T08:00:01.999872","MEAN_MOTION":15.25082775,"ECCENTRICITY":0.00014543,"INCLINATION":53.1364,"RA_OF_ASC_NODE":151.5949,"ARG_OF_PERICENTER":100.1773,"MEAN_ANOMALY":262.6521,"EPHEMERIS_TYPE":0,"CLASSIFICATION_TYPE":"U","NORAD_CAT_ID":44941,"ELEMENT_SET_NO":999,"REV_AT_EPOCH":574,"BSTAR":0.033609325,"MEAN_MOTION_DOT":0.00919837,"MEAN_MOTION_DDOT":0},{"OBJECT_NAME":"STARLINK-1122","OBJECT_ID":"2020-001AM","EPOCH":"2026-01-27T08:00:01.999872","MEAN_MOTION":15.25097374,"ECCENTRICITY":0.00012489,"INCLINATION":53.1372,"RA_OF_ASC_NODE":151.5831,"ARG_OF_PERICENTER":100.1077,"MEAN_ANOMALY":148.1833,"EPHEMERIS_TYPE":0,"CLASSIFICATION_TYPE":"U","NORAD_CAT_ID":44949,"ELEMENT_SET_NO":999,"REV_AT_EPOCH":579,"BSTAR":0.03282264,"MEAN_MOTION_DOT":0.00896957,"MEAN_MOTION_DDOT":0},{"OBJECT_NAME":"STARLINK-1080","OBJECT_ID":"2020-001AZ","EPOCH":"2026-01-27T08:00:01.999872","MEAN_MOTION":15.41748014,"ECCENTRICITY":0.00053459,"INCLINATION":53.0535,"RA_OF_ASC_NODE":124.8883,"ARG_OF_PERICENTER":340.0816,"MEAN_ANOMALY":80.3365,"EPHEMERIS_TYPE":0,"CLASSIFICATION_TYPE":"U","NORAD_CAT_ID":44961,"ELEMENT_SET_NO":999,"REV_AT_EPOCH":585,"BSTAR":0.0018775457,"MEAN_MOTION_DOT":0.0008107,"MEAN_MOTION_DDOT":0},{"OBJECT_NAME":"STARLINK-1090","OBJECT_ID":"2020-001BG","EPOCH":"2026-01-26T13:31:35.383008","MEAN_MOTION":15.06401789,"ECCENTRICITY":0.0001983,"INCLINATION":53.0504,"RA_OF_ASC_NODE":135.73,"ARG_OF_PERICENTER":96.7376,"MEAN_ANOMALY":263.3838,"EPHEMERIS_TYPE":0,"CLASSIFICATION_TYPE":"U","NORAD_CAT_ID":44968,"ELEMENT_SET_NO":999,"REV_AT_EPOCH":33406,"BSTAR":-4.2427e-5,"MEAN_MOTION_DOT":-9.14e-6,"MEAN_MOTION_DDOT":0},{"OBJECT_NAME":"STARLINK-1132","OBJECT_ID":"2020-006A","EPOCH":"2026-01-26T13:20:37.669920","MEAN_MOTION":15.37012167,"ECCENTRICITY":0.0002103,"INCLINATION":53.1596,"RA_OF_ASC_NODE":92.7989,"ARG_OF_PERICENTER":65.7289,"MEAN_ANOMALY":294.3934,"EPHEMERIS_TYPE":0,"CLASSIFICATION_TYPE":"U","NORAD_CAT_ID":45044,"ELEMENT_SET_NO":999,"REV_AT_EPOCH":33043,"BSTAR":0.0018283,"MEAN_MOTION_DOT":0.00067384,"MEAN_MOTION_DDOT":0},{"OBJECT_NAME":"STARLINK-1131","OBJECT_ID":"2020-006D","EPOCH":"2026-01-27T08:00:01.999872","MEAN_MOTION":15.15881368,"ECCENTRICITY":7.422e-5,"INCLINATION":53.095,"RA_OF_ASC_NODE":112.6331,"ARG_OF_PERICENTER":97.9816,"MEAN_ANOMALY":210.4578,"EPHEMERIS_TYPE":0,"CLASSIFICATION_TYPE":"U","NORAD_CAT_ID":45047,"ELEMENT_SET_NO":999,"REV_AT_EPOCH":574,"BSTAR":0.081261921,"MEAN_MOTION_DOT":0.01723674,"MEAN_MOTION_DDOT":0},{"OBJECT_NAME":"STARLINK-1134","OBJECT_ID":"2020-006E","EPOCH":"2026-01-27T07:37:54.351552","MEAN_MOTION":15.37889625,"ECCENTRICITY":0.00048449,"INCLINATION":53.0357,"RA_OF_ASC_NODE":74.28,"ARG_OF_PERICENTER":56.1086,"MEAN_ANOMALY":304.0377,"EPHEMERIS_TYPE":0,"CLASSIFICATION_TYPE":"U","NORAD_CAT_ID":45048,"ELEMENT_SET_NO":999,"REV_AT_EPOCH":33076,"BSTAR":0.0024953937,"MEAN_MOTION_DOT":0.00095154,"MEAN_MOTION_DDOT":0},{"OBJECT_NAME":"STARLINK-1156","OBJECT_ID":"2020-006L","EPOCH":"2026-01-27T08:00:01.999872","MEAN_MOTION":15.10141319,"ECCENTRICITY":0.0001053,"INCLINATION":53.0689,"RA_OF_ASC_NODE":112.2512,"ARG_OF_PERICENTER":67.7583,"MEAN_ANOMALY":313.8512,"EPHEMERIS_TYPE":0,"CLASSIFICATION_TYPE":"U","NORAD_CAT_ID":45054,"ELEMENT_SET_NO":999,"REV_AT_EPOCH":580,"BSTAR":0.075157719,"MEAN_MOTION_DOT":0.01349026,"MEAN_MOTION_DDOT":0},{"OBJECT_NAME":"STARLINK-1159","OBJECT_ID":"2020-006P","EPOCH":"2026-01-27T08:00:01.999872","MEAN_MOTION":15.67730606,"ECCENTRICITY":0.00044914,"INCLINATION":53.0481,"RA_OF_ASC_NODE":80.8421,"ARG_OF_PERICENTER":326.4709,"MEAN_ANOMALY":69.248,"EPHEMERIS_TYPE":0,"CLASSIFICATION_TYPE":"U","NORAD_CAT_ID":45057,"ELEMENT_SET_NO":999,"REV_AT_EPOCH":589,"BSTAR":0.00060434235,"MEAN_MOTION_DOT":0.00067506,"MEAN_MOTION_DDOT":0},{"OBJECT_NAME":"STARLINK-1166","OBJECT_ID":"2020-006S","EPOCH":"2026-01-27T07:22:19.764480","MEAN_MOTION":15.39432493,"ECCENTRICITY":0.00014423,"INCLINATION":53.0533,"RA_OF_ASC_NODE":109.0492,"ARG_OF_PERICENTER":46.3702,"MEAN_ANOMALY":313.742,"EPHEMERIS_TYPE":0,"CLASSIFICATION_TYPE":"U","NORAD_CAT_ID":45060,"ELEMENT_SET_NO":999,"REV_AT_EPOCH":33027,"BSTAR":0.0023325184,"MEAN_MOTION_DOT":0.00093479,"MEAN_MOTION_DDOT":0}]
